{
  "links" : {
    "next" : "https://api.nasa.gov/neo/rest/v1/feed?start_date=2015-08-16&end_date=2015-08-16&detailed=true&api_key=t0TVs3DtDT2H8Oy2Zy8m2eVrNsAVKAexjcZXUckd",
    "prev" : "https://api.nasa.gov/neo/rest/v1/feed?start_date=2015-08-14&end_date=2015-08-14&detailed=true&api_key=t0TVs3DtDT2H8Oy2Zy8m2eVrNsAVKAexjcZXUckd",
    "self" : "https://api.nasa.gov/neo/rest/v1/feed?start_date=2015-08-15&end_date=2015-08-15&detailed=true&api_key=t0TVs3DtDT2H8Oy2Zy8m2eVrNsAVKAexjcZXUckd"
  },
  "element_count" : 6,
  "near_earth_objects" : {
    "2015-08-15" : [ {
      "links" : {
        "self" : "https://api.nasa.gov/neo/rest/v1/neo/3360486?api_key=t0TVs3DtDT2H8Oy2Zy8m2eVrNsAVKAexjcZXUckd"
      },
      "neo_reference_id" : "3360486",
      "name" : "(2006 WE4)",
      "nasa_jpl_url" : "http://ssd.jpl.nasa.gov/sbdb.cgi?sstr=3360486",
      "absolute_magnitude_h" : 18.9,
      "estimated_diameter" : {
        "kilometers" : {
          "estimated_diameter_min" : 0.4411182,
          "estimated_diameter_max" : 0.9863702813
        },
        "meters" : {
          "estimated_diameter_min" : 441.1181999969,
          "estimated_diameter_max" : 986.3702813054
        },
        "miles" : {
          "estimated_diameter_min" : 0.2740980571,
          "estimated_diameter_max" : 0.6129018881
        },
        "feet" : {
          "estimated_diameter_min" : 1447.2382352778,
          "estimated_diameter_max" : 3236.1230737181
        }
      },
      "is_potentially_hazardous_asteroid" : false,
      "close_approach_data" : [ {
        "close_approach_date" : "2015-08-15",
        "epoch_date_close_approach" : 1439622000000,
        "relative_velocity" : {
          "kilometers_per_second" : "17.0413802416",
          "kilometers_per_hour" : "61348.9688697301",
          "miles_per_hour" : "38119.8634624165"
        },
        "miss_distance" : {
          "astronomical" : "0.3367682553",
          "lunar" : "131.0028533936",
          "kilometers" : "50379816",
          "miles" : "31304566"
        },
        "orbiting_body" : "Earth"
      } ],
      "orbital_data" : {
        "orbit_id" : "14",
        "orbit_determination_date" : "2017-04-06 09:07:32",
        "orbit_uncertainty" : "1",
        "minimum_orbit_intersection" : ".0997003",
        "jupiter_tisserand_invariant" : "7.325",
        "epoch_osculation" : "2458000.5",
        "eccentricity" : ".1830309189582611",
        "semi_major_axis" : ".7846785531482295",
        "inclination" : "24.76551165197736",
        "ascending_node_longitude" : "311.0263336508574",
        "orbital_period" : "253.8844493763703",
        "perihelion_distance" : ".6410581164786704",
        "perihelion_argument" : "318.5676422077828",
        "aphelion_distance" : ".9282989898177887",
        "perihelion_time" : "2457984.516363662450",
        "mean_anomaly" : "22.66428328183171",
        "mean_motion" : "1.417967901871449",
        "equinox" : "J2000"
      }
    }, {
      "links" : {
        "self" : "https://api.nasa.gov/neo/rest/v1/neo/3520758?api_key=t0TVs3DtDT2H8Oy2Zy8m2eVrNsAVKAexjcZXUckd"
      },
      "neo_reference_id" : "3520758",
      "name" : "(2010 HX107)",
      "nasa_jpl_url" : "http://ssd.jpl.nasa.gov/sbdb.cgi?sstr=3520758",
      "absolute_magnitude_h" : 23.6,
      "estimated_diameter" : {
        "kilometers" : {
          "estimated_diameter_min" : 0.0506471459,
          "estimated_diameter_max" : 0.1132504611
        },
        "meters" : {
          "estimated_diameter_min" : 50.6471458835,
          "estimated_diameter_max" : 113.2504610618
        },
        "miles" : {
          "estimated_diameter_min" : 0.0314706677,
          "estimated_diameter_max" : 0.0703705522
        },
        "feet" : {
          "estimated_diameter_min" : 166.1651821003,
          "estimated_diameter_max" : 371.5566426699
        }
      },
      "is_potentially_hazardous_asteroid" : false,
      "close_approach_data" : [ {
        "close_approach_date" : "2015-08-15",
        "epoch_date_close_approach" : 1439622000000,
        "relative_velocity" : {
          "kilometers_per_second" : "6.9623011324",
          "kilometers_per_hour" : "25064.2840766141",
          "miles_per_hour" : "15573.9714030495"
        },
        "miss_distance" : {
          "astronomical" : "0.323569792",
          "lunar" : "125.8686523438",
          "kilometers" : "48405356",
          "miles" : "30077692"
        },
        "orbiting_body" : "Earth"
      } ],
      "orbital_data" : {
        "orbit_id" : "13",
        "orbit_determination_date" : "2017-04-06 08:57:40",
        "orbit_uncertainty" : "1",
        "minimum_orbit_intersection" : ".0135841",
        "jupiter_tisserand_invariant" : "7.245",
        "epoch_osculation" : "2458000.5",
        "eccentricity" : ".3005049778688926",
        "semi_major_axis" : ".8008085288113501",
        "inclination" : "3.365302320868675",
        "ascending_node_longitude" : "51.60300056349139",
        "orbital_period" : "261.7528756743129",
        "perihelion_distance" : ".5601615795836749",
        "perihelion_argument" : "353.020096352595",
        "aphelion_distance" : "1.041455478039025",
        "perihelion_time" : "2458078.556294495415",
        "mean_anomaly" : "252.6458173727455",
        "mean_motion" : "1.375343056203637",
        "equinox" : "J2000"
      }
    }, {
      "links" : {
        "self" : "https://api.nasa.gov/neo/rest/v1/neo/3723955?api_key=t0TVs3DtDT2H8Oy2Zy8m2eVrNsAVKAexjcZXUckd"
      },
      "neo_reference_id" : "3723955",
      "name" : "(2015 NK3)",
      "nasa_jpl_url" : "http://ssd.jpl.nasa.gov/sbdb.cgi?sstr=3723955",
      "absolute_magnitude_h" : 21.3,
      "estimated_diameter" : {
        "kilometers" : {
          "estimated_diameter_min" : 0.1460679643,
          "estimated_diameter_max" : 0.3266178974
        },
        "meters" : {
          "estimated_diameter_min" : 146.0679642714,
          "estimated_diameter_max" : 326.6178974458
        },
        "miles" : {
          "estimated_diameter_min" : 0.090762397,
          "estimated_diameter_max" : 0.2029508896
        },
        "feet" : {
          "estimated_diameter_min" : 479.2256199,
          "estimated_diameter_max" : 1071.581062656
        }
      },
      "is_potentially_hazardous_asteroid" : false,
      "close_approach_data" : [ {
        "close_approach_date" : "2015-08-15",
        "epoch_date_close_approach" : 1439622000000,
        "relative_velocity" : {
          "kilometers_per_second" : "14.6296395175",
          "kilometers_per_hour" : "52666.7022628272",
          "miles_per_hour" : "32725.0406365884"
        },
        "miss_distance" : {
          "astronomical" : "0.3160496992",
          "lunar" : "122.9433288574",
          "kilometers" : "47280360",
          "miles" : "29378654"
        },
        "orbiting_body" : "Earth"
      } ],
      "orbital_data" : {
        "orbit_id" : "21",
        "orbit_determination_date" : "2017-04-06 08:32:49",
        "orbit_uncertainty" : "3",
        "minimum_orbit_intersection" : ".186935",
        "jupiter_tisserand_invariant" : "5.457",
        "epoch_osculation" : "2458000.5",
        "eccentricity" : ".3516743045868617",
        "semi_major_axis" : "1.10777595443772",
        "inclination" : "28.41299637199041",
        "ascending_node_longitude" : "136.7172416568082",
        "orbital_period" : "425.8692942066788",
        "perihelion_distance" : ".7181996160227876",
        "perihelion_argument" : "313.0919748302692",
        "aphelion_distance" : "1.497352292852652",
        "perihelion_time" : "2457794.969431284686",
        "mean_anomaly" : "173.7411119891742",
        "mean_motion" : ".8453297875598617",
        "equinox" : "J2000"
      }
    } ]
  }
}